{
  "links" : {
    "next" : "https://api.nasa.gov/neo/rest/v1/neo/browse?page=29&size=20&api_key=jqAGvNAwUIBu4fl9FSOjdm3V4F7hIglRzI6pdX9d",
    "prev" : "https://api.nasa.gov/neo/rest/v1/neo/browse?page=27&size=20&api_key=jqAGvNAwUIBu4fl9FSOjdm3V4F7hIglRzI6pdX9d",
    "self" : "https://api.nasa.gov/neo/rest/v1/neo/browse?page=28&size=20&api_key=jqAGvNAwUIBu4fl9FSOjdm3V4F7hIglRzI6pdX9d"
  },
  "page" : {
    "size" : 20,
    "total_elements" : 20750,
    "total_pages" : 1038,
    "number" : 28
  },
  "near_earth_objects" : [ {
    "links" : {
      "self" : "https://api.nasa.gov/neo/rest/v1/neo/3358115?api_key=jqAGvNAwUIBu4fl9FSOjdm3V4F7hIglRzI6pdX9d"
    },
    "neo_reference_id" : "3358115",
    "name" : "(2006 VB2)",
    "designation" : "2006 VB2",
    "nasa_jpl_url" : "http://ssd.jpl.nasa.gov/sbdb.cgi?sstr=3358115",
    "absolute_magnitude_h" : 19.7,
    "estimated_diameter" : {
      "kilometers" : {
        "estimated_diameter_min" : 0.3051792326,
        "estimated_diameter_max" : 0.6824015094
      },
      "meters" : {
        "estimated_diameter_min" : 305.1792325939,
        "estimated_diameter_max" : 682.4015094011
      },
      "miles" : {
        "estimated_diameter_min" : 0.1896295249,
        "estimated_diameter_max" : 0.4240245083
      },
      "feet" : {
        "estimated_diameter_min" : 1001.2442334633,
        "estimated_diameter_max" : 2238.8501681036
      }
    },
    "is_potentially_hazardous_asteroid" : false,
    "close_approach_data" : [ {
      "close_approach_date" : "2006-11-24",
      "epoch_date_close_approach" : 1164355200000,
      "relative_velocity" : {
        "kilometers_per_second" : "26.2764047301",
        "kilometers_per_hour" : "94595.0570284417",
        "miles_per_hour" : "58777.6897408115"
      },
      "miss_distance" : {
        "astronomical" : "0.2307964628",
        "lunar" : "89.7798233032",
        "kilometers" : "34526660",
        "miles" : "21453872"
      },
      "orbiting_body" : "Earth"
    } ],
    "orbital_data" : {
      "orbit_id" : "8",
      "orbit_determination_date" : "2017-04-06 09:07:42",
      "first_observation_date" : "2006-11-09",
      "last_observation_date" : "2006-11-21",
      "data_arc_in_days" : 12,
      "observations_used" : 20,
      "orbit_uncertainty" : "9",
      "minimum_orbit_intersection" : ".230492",
      "jupiter_tisserand_invariant" : "3.594",
      "epoch_osculation" : "2454050.5",
      "eccentricity" : ".7882776433377406",
      "semi_major_axis" : "1.795353572807556",
      "inclination" : "15.84564137312305",
      "ascending_node_longitude" : "4.478095515780171",
      "orbital_period" : "878.665171741735",
      "perihelion_distance" : ".3801164894768231",
      "perihelion_argument" : "171.4124938941704",
      "aphelion_distance" : "3.21059065613829",
      "perihelion_time" : "2454108.606747769924",
      "mean_anomaly" : "336.1929459936291",
      "mean_motion" : ".4097123814369353",
      "equinox" : "J2000",
      "orbit_class" : {
        "orbit_class_type" : "APO",
        "orbit_class_range" : "a (semi-major axis) > 1.0 AU; q (perihelion) < 1.017 AU",
        "orbit_class_description" : "Near-Earth asteroid orbits which cross the Earth’s orbit similar to that of 1862 Apollo"
      }
    },
    "is_sentry_object" : false
  }, {
    "links" : {
      "self" : "https://api.nasa.gov/neo/rest/v1/neo/3358116?api_key=jqAGvNAwUIBu4fl9FSOjdm3V4F7hIglRzI6pdX9d"
    },
    "neo_reference_id" : "3358116",
    "name" : "(2006 VC2)",
    "designation" : "2006 VC2",
    "nasa_jpl_url" : "http://ssd.jpl.nasa.gov/sbdb.cgi?sstr=3358116",
    "absolute_magnitude_h" : 21.1,
    "estimated_diameter" : {
      "kilometers" : {
        "estimated_diameter_min" : 0.160160338,
        "estimated_diameter_max" : 0.358129403
      },
      "meters" : {
        "estimated_diameter_min" : 160.1603379786,
        "estimated_diameter_max" : 358.1294030194
      },
      "miles" : {
        "estimated_diameter_min" : 0.0995189894,
        "estimated_diameter_max" : 0.2225312253
      },
      "feet" : {
        "estimated_diameter_min" : 525.4604432536,
        "estimated_diameter_max" : 1174.9652706022
      }
    },
    "is_potentially_hazardous_asteroid" : false,
    "close_approach_data" : [ {
      "close_approach_date" : "2003-11-14",
      "epoch_date_close_approach" : 1068796800000,
      "relative_velocity" : {
        "kilometers_per_second" : "17.0264545189",
        "kilometers_per_hour" : "61295.2362680263",
        "miles_per_hour" : "38086.4761133189"
      },
      "miss_distance" : {
        "astronomical" : "0.3668151946",
        "lunar" : "142.691116333",
        "kilometers" : "54874776",
        "miles" : "34097604"
      },
      "orbiting_body" : "Earth"
    }, {
      "close_approach_date" : "2006-11-15",
      "epoch_date_close_approach" : 1163577600000,
      "relative_velocity" : {
        "kilometers_per_second" : "14.9598067507",
        "kilometers_per_hour" : "53855.3043025063",
        "miles_per_hour" : "33463.5917206323"
      },
      "miss_distance" : {
        "astronomical" : "0.2680242839",
        "lunar" : "104.2614517212",
        "kilometers" : "40095864",
        "miles" : "24914414"
      },
      "orbiting_body" : "Earth"
    }, {
      "close_approach_date" : "2009-11-14",
      "epoch_date_close_approach" : 1258185600000,
      "relative_velocity" : {
        "kilometers_per_second" : "14.5798509575",
        "kilometers_per_hour" : "52487.4634469255",
        "miles_per_hour" : "32613.6686067854"
      },
      "miss_distance" : {
        "astronomical" : "0.4195157437",
        "lunar" : "163.191619873",
        "kilometers" : "62758660",
        "miles" : "38996424"
      },
      "orbiting_body" : "Earth"
    } ],
    "orbital_data" : {
      "orbit_id" : "9",
      "orbit_determination_date" : "2017-04-06 09:07:41",
      "first_observation_date" : "2006-11-09",
      "last_observation_date" : "2006-12-01",
      "data_arc_in_days" : 22,
      "observations_used" : 37,
      "orbit_uncertainty" : "8",
      "minimum_orbit_intersection" : ".265944",
      "jupiter_tisserand_invariant" : "3.496",
      "epoch_osculation" : "2454052.5",
      "eccentricity" : ".4223711030467768",
      "semi_major_axis" : "2.101471172109099",
      "inclination" : "27.75756898021135",
      "ascending_node_longitude" : "226.2053357102836",
      "orbital_period" : "1112.714076052646",
      "perihelion_distance" : "1.213870475124376",
      "perihelion_argument" : "211.7134467723236",
      "aphelion_distance" : "2.989071869093822",
      "perihelion_time" : "2454084.695990471108",
      "mean_anomaly" : "349.5835266048612",
      "mean_motion" : ".3235332487902914",
      "equinox" : "J2000",
      "orbit_class" : {
        "orbit_class_type" : "AMO",
        "orbit_class_range" : "1.017 AU < q (perihelion) < 1.3 AU",
        "orbit_class_description" : "Near-Earth asteroid orbits similar to that of 1221 Amor"
      }
    },
    "is_sentry_object" : false
  } ]
}